[{"OBJECT_NAME":"ONEWEB-0302","OBJECT_ID":"2021-075S","EPOCH":"2026-03-09T21:21:46.698048","MEAN_MOTION":13.12443637,"ECCENTRICITY":0.00021292,"INCLINATION":87.9005,"RA_OF_ASC_NODE":10.3712,"ARG_OF_PERICENTER":76.5147,"MEAN_ANOMALY":283.6219,"EPHEMERIS_TYPE":0,"CLASSIFICATION_TYPE":"U","NORAD_CAT_ID":49091,"ELEMENT_SET_NO":999,"REV_AT_EPOCH":22152,"BSTAR":0.0010479271,"MEAN_MOTION_DOT":3.9e-6,"MEAN_MOTION_DDOT":0},{"OBJECT_NAME":"DELTA 1 DEB","OBJECT_ID":"1976-077DM","EPOCH":"2026-03-09T21:16:03.105120","MEAN_MOTION":12.78152564,"ECCENTRICITY":0.02429214,"INCLINATION":102.1351,"RA_OF_ASC_NODE":59.7465,"ARG_OF_PERICENTER":121.115,"MEAN_ANOMALY":304.0473,"EPHEMERIS_TYPE":0,"CLASSIFICATION_TYPE":"U","NORAD_CAT_ID":12532,"ELEMENT_SET_NO":999,"REV_AT_EPOCH":36812,"BSTAR":0.0060085813,"MEAN_MOTION_DOT":1.459e-5,"MEAN_MOTION_DDOT":0}]
